CCSDS_OMM_VERS = 2.0
CREATION_DATE  = 
ORIGINATOR     = 

OBJECT_NAME    = SL-14 R/B
OBJECT_ID      = 1991-042B
CENTER_NAME    = EARTH
REF_FRAME      = TEME
TIME_SYSTEM    = UTC
MEAN_ELEMENT_THEORY = SGP/SGP4

EPOCH          = 2026-01-31T03:29:26.981088
MEAN_MOTION    = 14.81793316
ECCENTRICITY   = .00172833
INCLINATION    = 82.4907
RA_OF_ASC_NODE = 255.3972
ARG_OF_PERICENTER = 9.6183
MEAN_ANOMALY   = 350.5359

EPHEMERIS_TYPE = 0
CLASSIFICATION_TYPE = U
NORAD_CAT_ID   = 21423
ELEMENT_SET_NO = 999
REV_AT_EPOCH   = 84751
BSTAR          = .55775146E-4
MEAN_MOTION_DOT = .464E-5
MEAN_MOTION_DDOT = 0

CCSDS_OMM_VERS = 2.0
CREATION_DATE  = 
ORIGINATOR     = 

OBJECT_NAME    = ERS-1
OBJECT_ID      = 1991-050A
CENTER_NAME    = EARTH
REF_FRAME      = TEME
TIME_SYSTEM    = UTC
MEAN_ELEMENT_THEORY = SGP/SGP4

EPOCH          = 2026-01-31T12:12:25.098048
MEAN_MOTION    = 14.39416756
ECCENTRICITY   = .0031163
INCLINATION    = 98.7895
RA_OF_ASC_NODE = 48.8084
ARG_OF_PERICENTER = 313.9520
MEAN_ANOMALY   = 45.9097

EPHEMERIS_TYPE = 0
CLASSIFICATION_TYPE = U
NORAD_CAT_ID   = 21574
ELEMENT_SET_NO = 999
REV_AT_EPOCH   = 81038
BSTAR          = .16006E-3
MEAN_MOTION_DOT = .454E-5
MEAN_MOTION_DDOT = 0

CCSDS_OMM_VERS = 2.0
CREATION_DATE  = 
ORIGINATOR     = 

OBJECT_NAME    = ARIANE 40 R/B
OBJECT_ID      = 1991-050F
CENTER_NAME    = EARTH
REF_FRAME      = TEME
TIME_SYSTEM    = UTC
MEAN_ELEMENT_THEORY = SGP/SGP4

EPOCH          = 2026-01-31T08:53:37.238496
MEAN_MOTION    = 14.42864036
ECCENTRICITY   = .0003317
INCLINATION    = 98.2090
RA_OF_ASC_NODE = 84.9935
ARG_OF_PERICENTER = 166.5936
MEAN_ANOMALY   = 193.5344

EPHEMERIS_TYPE = 0
CLASSIFICATION_TYPE = U
NORAD_CAT_ID   = 21610
ELEMENT_SET_NO = 999
REV_AT_EPOCH   = 81361
BSTAR          = .1308E-3
MEAN_MOTION_DOT = .395E-5
MEAN_MOTION_DDOT = 0

CCSDS_OMM_VERS = 2.0
CREATION_DATE  = 
ORIGINATOR     = 

OBJECT_NAME    = INTERCOSMOS 25
OBJECT_ID      = 1991-086A
CENTER_NAME    = EARTH
REF_FRAME      = TEME
TIME_SYSTEM    = UTC
MEAN_ELEMENT_THEORY = SGP/SGP4

EPOCH          = 2026-01-31T08:08:06.174240
MEAN_MOTION    = 12.11899024
ECCENTRICITY   = .1486422
INCLINATION    = 82.6092
RA_OF_ASC_NODE = 332.5790
ARG_OF_PERICENTER = 197.4121
MEAN_ANOMALY   = 157.0259

EPHEMERIS_TYPE = 0
CLASSIFICATION_TYPE = U
NORAD_CAT_ID   = 21819
ELEMENT_SET_NO = 999
REV_AT_EPOCH   = 49216
BSTAR          = .24718E-3
MEAN_MOTION_DOT = .1265E-4
MEAN_MOTION_DDOT = 0

CCSDS_OMM_VERS = 2.0
CREATION_DATE  = 
ORIGINATOR     = 

OBJECT_NAME    = SL-8 R/B
OBJECT_ID      = 1992-008B
CENTER_NAME    = EARTH
REF_FRAME      = TEME
TIME_SYSTEM    = UTC
MEAN_ELEMENT_THEORY = SGP/SGP4

EPOCH          = 2026-01-31T12:19:32.386656
MEAN_MOTION    = 13.75968893
ECCENTRICITY   = .0033473
INCLINATION    = 82.9279
RA_OF_ASC_NODE = 295.4324
ARG_OF_PERICENTER = 237.6115
MEAN_ANOMALY   = 296.7742

EPHEMERIS_TYPE = 0
CLASSIFICATION_TYPE = U
NORAD_CAT_ID   = 21876
ELEMENT_SET_NO = 999
REV_AT_EPOCH   = 70430
BSTAR          = .59188E-4
MEAN_MOTION_DOT = .73E-6
MEAN_MOTION_DDOT = 0

CCSDS_OMM_VERS = 2.0
CREATION_DATE  = 
ORIGINATOR     = 

OBJECT_NAME    = SL-8 R/B
OBJECT_ID      = 1992-020B
CENTER_NAME    = EARTH
REF_FRAME      = TEME
TIME_SYSTEM    = UTC
MEAN_ELEMENT_THEORY = SGP/SGP4

EPOCH          = 2026-01-31T10:45:29.377152
MEAN_MOTION    = 13.75543233
ECCENTRICITY   = .0029771
INCLINATION    = 82.9317
RA_OF_ASC_NODE = 181.4046
ARG_OF_PERICENTER = 43.7675
MEAN_ANOMALY   = 10.3950

EPHEMERIS_TYPE = 0
CLASSIFICATION_TYPE = U
NORAD_CAT_ID   = 21938
ELEMENT_SET_NO = 999
REV_AT_EPOCH   = 69601
BSTAR          = .10759E-3
MEAN_MOTION_DOT = .119E-5
MEAN_MOTION_DDOT = 0

CCSDS_OMM_VERS = 2.0
CREATION_DATE  = 
ORIGINATOR     = 

OBJECT_NAME    = USA 81
OBJECT_ID      = 1992-023A
CENTER_NAME    = EARTH
REF_FRAME      = TEME
TIME_SYSTEM    = UTC
MEAN_ELEMENT_THEORY = SGP/SGP4

EPOCH          = 2026-01-31T10:11:12.812640
MEAN_MOTION    = 14.32352793
ECCENTRICITY   = .0002354
INCLINATION    = 85.0118
RA_OF_ASC_NODE = 152.9270
ARG_OF_PERICENTER = 110.3083
MEAN_ANOMALY   = 249.8362

EPHEMERIS_TYPE = 0
CLASSIFICATION_TYPE = U
NORAD_CAT_ID   = 21949
ELEMENT_SET_NO = 999
REV_AT_EPOCH   = 8945
BSTAR          = .85394E-4
MEAN_MOTION_DOT = .25E-5
MEAN_MOTION_DDOT = 0

CCSDS_OMM_VERS = 2.0
CREATION_DATE  = 
ORIGINATOR     = 

OBJECT_NAME    = COSMOS 2219
OBJECT_ID      = 1992-076A
CENTER_NAME    = EARTH
REF_FRAME      = TEME
TIME_SYSTEM    = UTC
MEAN_ELEMENT_THEORY = SGP/SGP4

EPOCH          = 2026-01-31T10:53:45.918816
MEAN_MOTION    = 14.14078697
ECCENTRICITY   = .0020687
INCLINATION    = 71.0596
RA_OF_ASC_NODE = 95.9131
ARG_OF_PERICENTER = 258.7270
MEAN_ANOMALY   = 101.1528

EPHEMERIS_TYPE = 0
CLASSIFICATION_TYPE = U
NORAD_CAT_ID   = 22219
ELEMENT_SET_NO = 999
REV_AT_EPOCH   = 71311
BSTAR          = -.10048E-3
MEAN_MOTION_DOT = -.239E-5
MEAN_MOTION_DDOT = 0

CCSDS_OMM_VERS = 2.0
CREATION_DATE  = 
ORIGINATOR     = 

OBJECT_NAME    = SL-16 R/B
OBJECT_ID      = 1992-076B
CENTER_NAME    = EARTH
REF_FRAME      = TEME
TIME_SYSTEM    = UTC
MEAN_ELEMENT_THEORY = SGP/SGP4

EPOCH          = 2026-01-31T08:54:30.208608
MEAN_MOTION    = 14.16851324
ECCENTRICITY   = .0012051
INCLINATION    = 70.9986
RA_OF_ASC_NODE = 266.9861
ARG_OF_PERICENTER = 161.7707
MEAN_ANOMALY   = 11.2671

EPHEMERIS_TYPE = 0
CLASSIFICATION_TYPE = U
NORAD_CAT_ID   = 22220
ELEMENT_SET_NO = 999
REV_AT_EPOCH   = 71654
BSTAR          = .1295E-3
MEAN_MOTION_DOT = .212E-5
MEAN_MOTION_DDOT = 0

CCSDS_OMM_VERS = 2.0
CREATION_DATE  = 
ORIGINATOR     = 

OBJECT_NAME    = COSMOS 2221
OBJECT_ID      = 1992-080A
CENTER_NAME    = EARTH
REF_FRAME      = TEME
TIME_SYSTEM    = UTC
MEAN_ELEMENT_THEORY = SGP/SGP4

EPOCH          = 2026-01-31T06:01:08.688000
MEAN_MOTION    = 14.96038205
ECCENTRICITY   = .0013548
INCLINATION    = 82.5068
RA_OF_ASC_NODE = 314.9323
ARG_OF_PERICENTER = 325.0122
MEAN_ANOMALY   = 35.0209

EPHEMERIS_TYPE = 0
CLASSIFICATION_TYPE = U
NORAD_CAT_ID   = 22236
ELEMENT_SET_NO = 999
REV_AT_EPOCH   = 77519
BSTAR          = .2392E-3
MEAN_MOTION_DOT = .2714E-4
MEAN_MOTION_DDOT = 0

CCSDS_OMM_VERS = 2.0
CREATION_DATE  = 
ORIGINATOR     = 

OBJECT_NAME    = SL-16 R/B
OBJECT_ID      = 1992-093B
CENTER_NAME    = EARTH
REF_FRAME      = TEME
TIME_SYSTEM    = UTC
MEAN_ELEMENT_THEORY = SGP/SGP4

EPOCH          = 2026-01-31T11:54:37.517184
MEAN_MOTION    = 14.15442938
ECCENTRICITY   = .0004898
INCLINATION    = 71.0211
RA_OF_ASC_NODE = 82.3481
ARG_OF_PERICENTER = 332.8618
MEAN_ANOMALY   = 27.2248

EPHEMERIS_TYPE = 0
CLASSIFICATION_TYPE = U
NORAD_CAT_ID   = 22285
ELEMENT_SET_NO = 999
REV_AT_EPOCH   = 70789
BSTAR          = -.73528E-4
MEAN_MOTION_DOT = -.191E-5
MEAN_MOTION_DDOT = 0

CCSDS_OMM_VERS = 2.0
CREATION_DATE  = 
ORIGINATOR     = 

OBJECT_NAME    = COSMOS 2228
OBJECT_ID      = 1992-094A
CENTER_NAME    = EARTH
REF_FRAME      = TEME
TIME_SYSTEM    = UTC
MEAN_ELEMENT_THEORY = SGP/SGP4

EPOCH          = 2026-01-31T10:12:24.164352
MEAN_MOTION    = 14.97016294
ECCENTRICITY   = .0019494
INCLINATION    = 82.5172
RA_OF_ASC_NODE = 272.9923
ARG_OF_PERICENTER = 68.7811
MEAN_ANOMALY   = 291.5491

EPHEMERIS_TYPE = 0
CLASSIFICATION_TYPE = U
NORAD_CAT_ID   = 22286
ELEMENT_SET_NO = 999
REV_AT_EPOCH   = 77048
BSTAR          = .19582E-3
MEAN_MOTION_DOT = .2288E-4
MEAN_MOTION_DDOT = 0

