SL-14 R/B               
1 21423U 91042B   26031.14545117  .00000464  00000+0  55775-4 0  9994
2 21423  82.4907 255.3972 0017283   9.6183 350.5359 14.81793316847513
ERS-1                   
1 21574U 91050A   26031.50862382  .00000454  00000+0  16006-3 0  9998
2 21574  98.7895  48.8084 0031163 313.9520  45.9097 14.39416756810386
ARIANE 40 R/B           
1 21610U 91050F   26031.37056989  .00000395  00000+0  13080-3 0  9995
2 21610  98.2090  84.9935 0003317 166.5936 193.5344 14.42864036813614
INTERCOSMOS 25          
1 21819U 91086A   26031.33896035  .00001265  00000+0  24718-3 0  9992
2 21819  82.6092 332.5790 1486422 197.4121 157.0259 12.11899024492169
SL-8 R/B                
1 21876U 92008B   26031.51356929  .00000073  00000+0  59188-4 0  9999
2 21876  82.9279 295.4324 0033473 237.6115 296.7742 13.75968893704307
SL-8 R/B                
1 21938U 92020B   26031.44825668  .00000119  00000+0  10759-3 0  9996
2 21938  82.9317 181.4046 0029771  43.7675  10.3950 13.75543233696013
USA 81                  
1 21949U 92023A   26031.42445385  .00000250  00000+0  85394-4 0  9997
2 21949  85.0118 152.9270 0002354 110.3083 249.8362 14.32352793 89455
COSMOS 2219             
1 22219U 92076A   26031.45400369 -.00000239  00000+0 -10048-3 0  9994
2 22219  71.0596  95.9131 0020687 258.7270 101.1528 14.14078697713116
SL-16 R/B               
1 22220U 92076B   26031.37118297  .00000212  00000+0  12950-3 0  9996
2 22220  70.9986 266.9861 0012051 161.7707  11.2671 14.16851324716541
COSMOS 2221             
1 22236U 92080A   26031.25079500  .00002714  00000+0  23920-3 0  9996
2 22236  82.5068 314.9323 0013548 325.0122  35.0209 14.96038205775193
SL-16 R/B               
1 22285U 92093B   26031.49626756 -.00000191  00000+0 -73528-4 0  9990
2 22285  71.0211  82.3481 0004898 332.8618  27.2248 14.15442938707896
COSMOS 2228             
1 22286U 92094A   26031.42527968  .00002288  00000+0  19582-3 0  9996
2 22286  82.5172 272.9923 0019494  68.7811 291.5491 14.97016294770489
